CCSDS_OEM_VERS = 1.0
CREATION_DATE  = 2017-05-11T11:07:40
ORIGINATOR     = GMAT USER

META_START
OBJECT_NAME          = MOPSSat_alt_35785_km_RAAN_0_151
OBJECT_ID            = SatId
CENTER_NAME          = Earth
REF_FRAME            = EME2000
TIME_SYSTEM          = UTC
START_TIME           = 2017-01-01T00:00:00.000
USEABLE_START_TIME   = 2017-01-01T00:00:00.000
USEABLE_STOP_TIME    = 2017-01-02T00:00:00.000
STOP_TIME            = 2017-01-02T00:00:00.000
INTERPOLATION        = Lagrange
INTERPOLATION_DEGREE = 7 
META_STOP


                                                                                   

2017-01-01T00:27:30.000   1.988940126366711e+04   8.622568347184961e+03   1.504719475243275e+01  -1.412369764784356e+00   5.032491540452525e+00   8.781144830010570e-03
2017-01-01T00:27:40.000   1.987523867178007e+04   8.672876363532479e+03   1.513497666428892e+01  -1.420146448417883e+00   5.029109103042328e+00   8.775232969406254e-03
2017-01-01T00:27:50.000   1.986099837878126e+04   8.723150474301241e+03   1.522269931615443e+01  -1.427909950066911e+00   5.025710334307185e+00   8.769292674170271e-03
2017-01-01T00:28:00.000   1.984668051674443e+04   8.773390516506224e+03   1.531036242425631e+01  -1.435660218714864e+00   5.022295300058269e+00   8.763324059263229e-03
2017-01-01T00:28:10.000   1.983228521825663e+04   8.823596327794130e+03   1.539796570592515e+01  -1.443397203768695e+00   5.018864066275452e+00   8.757327239938953e-03
2017-01-01T00:28:20.000   1.981781261656264e+04   8.873767745966788e+03   1.548550887876349e+01  -1.451120854986607e+00   5.015416699139287e+00   8.751302331800537e-03
2017-01-01T00:28:30.000   1.980326284536452e+04   8.923904609628737e+03   1.557299166177576e+01  -1.458831122576942e+00   5.011953264981350e+00   8.745249450713396e-03
2017-01-01T00:28:40.000   1.978863603889326e+04   8.974006757933757e+03   1.566041377492601e+01  -1.466527957159454e+00   5.008473830299136e+00   8.739168712831367e-03
2017-01-01T00:28:50.000   1.977393233157492e+04   9.024074031717344e+03   1.574777494111387e+01  -1.474211309939393e+00   5.004978461674467e+00   8.733060234453889e-03
2017-01-01T00:29:00.000   1.975915185835516e+04   9.074106272366987e+03   1.583507488420337e+01  -1.481881132533848e+00   5.001467225848602e+00   8.726924132157541e-03
2017-01-01T00:29:10.000   1.974429475462202e+04   9.124103322080115e+03   1.592231332947299e+01  -1.489537377011559e+00   4.997940189701716e+00   8.720760522760053e-03
2017-01-01T00:29:20.000   1.972936115638348e+04   9.174065023213130e+03   1.600949000247979e+01  -1.497179995792089e+00   4.994397420293256e+00   8.714569523391072e-03
2017-01-01T00:29:30.000   1.971435120013108e+04   9.223991218768608e+03   1.609660462990953e+01  -1.504808941721553e+00   4.990838984827093e+00   8.708351251431101e-03
2017-01-01T00:29:40.000   1.969926502283150e+04   9.273881752394744e+03   1.618365693957563e+01  -1.512424168072029e+00   4.987264950647583e+00   8.702105824504616e-03
2017-01-01T00:29:50.000   1.968410276207732e+04   9.323736467911725e+03   1.627064665959281e+01  -1.520025628470269e+00   4.983675385272847e+00   8.695833360538039e-03
2017-01-01T00:30:00.000   1.966886455587782e+04   9.373555209954729e+03   1.635757351949901e+01  -1.527613276994719e+00   4.980070356343418e+00   8.689533977670244e-03
2017-01-01T00:30:10.000   1.965355054273409e+04   9.423337823721869e+03   1.644443724981555e+01  -1.535187068137182e+00   4.976449931637873e+00   8.683207794279790e-03
2017-01-01T00:30:20.000   1.963816086128958e+04   9.473084156099141e+03   1.653123758401002e+01  -1.542746956973887e+00   4.972814178988125e+00   8.676854928837126e-03
2017-01-01T00:30:30.000   1.962269565067023e+04   9.522794054537670e+03   1.661797425653716e+01  -1.550292898994365e+00   4.969163166357796e+00   8.670475500041316e-03
2017-01-01T00:30:40.000   1.960715505040369e+04   9.572467367309695e+03   1.670464700328563e+01  -1.557824850140414e+00   4.965496961820981e+00   8.664069626783046e-03
2017-01-01T00:30:50.000   1.959153920060581e+04   9.622103942861399e+03   1.679125556044863e+01  -1.565342766706574e+00   4.961815633604575e+00   8.657637428218337e-03
2017-01-01T00:31:00.000   1.957584824183763e+04   9.671703630296866e+03   1.687779966536844e+01  -1.572846605414494e+00   4.958119250052075e+00   8.651179023705565e-03
2017-01-01T00:31:10.000   1.956008231509692e+04   9.721266279377200e+03   1.696427905653480e+01  -1.580336323412088e+00   4.954407879619715e+00   8.644694532798569e-03
2017-01-01T00:31:20.000   1.954424156197538e+04   9.770791740049923e+03   1.705069347276384e+01  -1.587811878203272e+00   4.950681590911061e+00   8.638184075307358e-03
2017-01-01T00:31:30.000   1.952832612444077e+04   9.820279863087326e+03   1.713704265431180e+01  -1.595273227743073e+00   4.946940452624033e+00   8.631647771205331e-03
2017-01-01T00:31:40.000   1.951233614491706e+04   9.869730499831046e+03   1.722332634242942e+01  -1.602720330399020e+00   4.943184533567658e+00   8.625085740658629e-03
2017-01-01T00:31:50.000   1.949627176591340e+04   9.919143503327843e+03   1.730954428134367e+01  -1.610153145121872e+00   4.939413902572897e+00   8.618498103870142e-03
2017-01-01T00:32:00.000   1.948013313038685e+04   9.968518727192584e+03   1.739569621627382e+01  -1.617571631273951e+00   4.935628628575849e+00   8.611884981225112e-03
2017-01-01T00:32:10.000   1.946392038164406e+04   1.001785602590335e+04   1.748178189394627e+01  -1.624975748673322e+00   4.931828780592656e+00   8.605246493247162e-03
2017-01-01T00:32:20.000   1.944763366358745e+04   1.006715525401025e+04   1.756780106121419e+01  -1.632365457473701e+00   4.928014427775502e+00   8.598582760696336e-03
2017-01-01T00:32:30.000   1.943127312050559e+04   1.011641626679068e+04   1.765375346620065e+01  -1.639740718263344e+00   4.924185639361192e+00   8.591893904479102e-03
2017-01-01T00:32:40.000   1.941483889711434e+04   1.016563892010386e+04   1.773963885804499e+01  -1.647101492042534e+00   4.920342484678898e+00   8.585180045661955e-03
2017-01-01T00:32:50.000   1.939833113854508e+04   1.021482307043395e+04   1.782545698697791e+01  -1.654447740230255e+00   4.916485033145251e+00   8.578441305462817e-03
2017-01-01T00:33:00.000   1.938174999031954e+04   1.026396857493753e+04   1.791120760440434e+01  -1.661779424670286e+00   4.912613354256632e+00   8.571677805237564e-03
2017-01-01T00:33:10.000   1.936509559834010e+04   1.031307529146243e+04   1.799689046293624e+01  -1.669096507633606e+00   4.908727517584966e+00   8.564889666472699e-03
2017-01-01T00:33:20.000   1.934836810882839e+04   1.036214307872528e+04   1.808250531670254e+01  -1.676398951844648e+00   4.904827592761335e+00   8.558077010756629e-03
2017-01-01T00:33:30.000   1.933156766835765e+04   1.041117179619364e+04   1.816805192114322e+01  -1.683686720462835e+00   4.900913649481738e+00   8.551239959789854e-03
2017-01-01T00:33:40.000   1.931469442384922e+04   1.046016130408694e+04   1.825353003301117e+01  -1.690959777082280e+00   4.896985757504310e+00   8.544378635380059e-03
2017-01-01T00:33:50.000   1.929774852252512e+04   1.050911146349248e+04   1.833893941057439e+01  -1.698218085748096e+00   4.893043986636496e+00   8.537493159419920e-03
2017-01-01T00:34:00.000   1.928073011196631e+04   1.055802213619194e+04   1.842427981331343e+01  -1.705461610930332e+00   4.889088406746615e+00   8.530583653907103e-03
2017-01-01T00:34:10.000   1.926363934011513e+04   1.060689318464466e+04   1.850955100189208e+01  -1.712690317520975e+00   4.885119087762526e+00   8.523650240942014e-03
2017-01-01T00:34:20.000   1.924647635528354e+04   1.065572447193705e+04   1.859475273806912e+01  -1.719904170825279e+00   4.881136099671834e+00   8.516693042727964e-03
2017-01-01T00:34:30.000   1.922924130616802e+04   1.070451586174700e+04   1.867988478463630e+01  -1.727103136556587e+00   4.877139512523265e+00   8.509712181573748e-03
2017-01-01T00:34:40.000   1.921193434179247e+04   1.075326721848680e+04   1.876494690566756e+01  -1.734287180856468e+00   4.873129396411630e+00   8.502707779867358e-03
2017-01-01T00:34:50.000   1.919455561173903e+04   1.080197840666508e+04   1.884993886540578e+01  -1.741456270200938e+00   4.869105821529166e+00   8.495679960165854e-03
2017-01-01T00:35:00.000   1.917710526586063e+04   1.085064929166183e+04   1.893486042961511e+01  -1.748610371513111e+00   4.865068858097389e+00   8.488628845076115e-03
2017-01-01T00:35:10.000   1.915958345438124e+04   1.089927973944036e+04   1.901971136507825e+01  -1.755749452120274e+00   4.861018576388406e+00   8.481554557292170e-03
2017-01-01T00:35:20.000   1.914199032748947e+04   1.094786961766679e+04   1.910449144154981e+01  -1.762873479917633e+00   4.856955046629111e+00   8.474457219427653e-03
2017-01-01T00:35:30.000   1.912432603573490e+04   1.099641879459373e+04   1.918920042980854e+01  -1.769982423203516e+00   4.852878339091077e+00   8.467336954172981e-03
2017-01-01T00:35:40.000   1.910659072993445e+04   1.104492713931446e+04   1.927383810210078e+01  -1.777076250716153e+00   4.848788524067006e+00   8.460193884254239e-03
2017-01-01T00:35:50.000   1.908878456138811e+04   1.109339452112931e+04   1.935840423103491e+01  -1.784154931538981e+00   4.844685671919153e+00   8.453028132517923e-03
2017-01-01T00:36:00.000   1.907090768171418e+04   1.114182081001813e+04   1.944289859040571e+01  -1.791218435170275e+00   4.840569853039113e+00   8.445839821860495e-03
2017-01-01T00:36:10.000   1.905296024284129e+04   1.119020587663835e+04   1.952732095519101e+01  -1.798266731521550e+00   4.836441137844351e+00   8.438629075222422e-03
2017-01-01T00:36:20.000   1.903494239718614e+04   1.123854959186539e+04   1.961167110074968e+01  -1.805299790851019e+00   4.832299596816919e+00   8.431396015655554e-03
2017-01-01T00:36:30.000   1.901685429740793e+04   1.128685182741431e+04   1.969594880390635e+01  -1.812317583852179e+00   4.828145300445643e+00   8.424140766222409e-03
